{
  "type": "FeatureCollection",
  "features": [
    {
      "type": "Feature",
      "geometry": {
        "type": "Point",
        "coordinates": [132.924746, 48.789920]
      },
      "properties": {
        "id": "birobidzhan",
        "name": "Биробиджан",
        "description": "<p>Биробиджан был основан в 1916 году как станция Тихонькая в рамках освоения земель вокруг Амурской железной дороги. Станция получила название по существовавшей в этом месте заимке — Сопка Тихонького. При станции был основан поселок. После принятия постановления Президиума ЦИК СССР о закреплении за трудящимися евреями свободных земель в Приамурье в 1928 г. Тихонькая стала базой приема переселенцев. Тогда население поселка насчитывало 623 человека. В связи с прибытием переселенцев в поселке начинают создаваться артели.</p><p>В 1931 году поселок Тихонькая был отнесен к категории рабочих поселков и ему было присвоено название Биробиджан в честь протекающих через него рек. В 1934 году Биробиджан был назначен районным центром, а в 1937 году получил статус города.</p><p>С ростом переселенческого движения в 1930-х гг. Биробиджан стал активно застраиваться. В нем стали возникать промышленные предприятия, образовательные организации, жилые постройки. К началу Великой Отечественной войны началось издание газет на русском и идише, а также радиовещание. Открывается Государственный театр, музей, запускается автобусное движение.</p><p>Население Биробиджане, как и население всей ЕАО, в значительной мере пострадало в период репрессий 1937-1938 гг. и в годы Великой Отечественной войны.</p><audio controls src=\"audio/EAO_25_11_Bb_audio_30_31.mp3\"></audio><p class=\"audio-info\">— Воспоминания старожила о получении статуса города и ВОВ, 2025 г.</p><p>После войны Биробиджан не избежал гонений в ходе кампании по борьбе с космополитизмом. Многие руководители-евреи на городских предприятиях были заменены на русских, а многие из культурных деятелей были сосланы в лагеря, либо расстреляны. Поводом для обвинения также считалось посещение синагоги (открыта в 1947 году) и отождествление себя с Биробиджаном, а не всей ЕАО. В это время прекратил свою работу Еврейский театр им. Кагановича.</p><p>До распада СССР город продолжал развиваться, а его население неуклонно росло (83667 человек в 1989 г.), однако практически полностью прекратилась официальная поддержка инициатив, связанных с развитием и поддержанием еврейской культуры. </p><audio controls src=\"audio/EAO_25_11_Bb_audio_21.0.mp3\"></audio><p class=\"audio-info\">— Воспоминания старожила о численности евреев, 2025 г.</p><p>В 1990-е годы подавляющее большинство биробиджанских евреев эмигрировало в Израиль, отчего процент еврейского населения в городе упал практически до нуля.</p><audio controls src=\"audio/EAO_25_11_Bb_audio_39_41.mp3\"></audio><p class=\"audio-info\">— Старожил об эмиграции из ЕАО, 2025 г.</p>",
        "images":[
          {
            "url": "images/Биробиджан.jpg",
            "caption": "Биробиджан. Вид сверху.",
            "source": ""
          }
        ]
      }
    },
    {
      "type": "Feature",
      "geometry": {
        "type": "Point",
        "coordinates": [132.973387, 48.696065]
      },
      "properties": {
        "id": "valdgeym",
        "name": "Валдгейм",
        "description": "<p>Село было основано в 1928 году в ходе кампании по земельному устройству трудящихся евреев в СССР, которую проводило всесоюзное общество «ОЗЕТ». Название села переводится с идиша как «дом в лесу» (от װאלד — «лес» и הײם — «дом»), что точно отражало его первоначальное расположение в таёжной местности. Оно расположено вблизи левого берега реки Бира, в 10 км к северу от областного центра, города Биробиджана.</p><p>Уже к осени того же года были построены первые дома. К 1929 году население посёлка выросло до 103 человек. Действовали смолокуренно-скипидарная артель и производство щепы. В октябре 1929 года переселенцы объединились в колхоз «Валдгейм», который был одним из самых крупных.<br>1930-е годы стали периодом экономического подъема Валдгейма. Население занималось свиноводством, огородничеством и пчеловодством, работали кирпичный завод, швейная и чулочная артели. Инфраструктура села включала клуб, школу, ясли-сад, хлебопекарню, почту и больницу. Население росло быстрыми темпами: с 307 человек в 1931 году до около 600 в 1933 году. Весной 1933 года в хозяйстве появились первые тракторы, что ознаменовало переход к механизации труда.</p><p>В 1950 году, в ходе кампании по укрупнению колхозов, к «Валдгейму» был присоединён колхоз «20 лет Октября» из села Птичник. Новое объединённое хозяйство получило название «33-я годовщина Октября». Спустя десять лет, в 1960 году, к нему присоединились колхозы сёл Жёлтый Яр и Пронькино. Укрупнённый колхоз был назван «Заветы Ильича» и просуществовал несколько десятилетий.</p><p>Современное село Валдгейм находится в Биробиджанском районе Еврейской автономной области. В административном плане село является центром Вальдгеймского сельского поселения, в состав которого также входит село Птичник. Поселение входит в состав Биробиджанского муниципального района Еврейской автономной области.</p>",
        "images": [
          {
            "url": "images/35_Валдгейм_стела.jpg",
            "caption": "Стела при въезде в село Валдгейм",
            "source": "Фото волонтера экспедиции, 2025."
          },
          {
            "url": "images/33_Памятник переселенцам_Валдгейм.jpg",
            "caption": "Памятник первым переселенцам в селе Валдгейм",
            "source": "Фото волонтера экспедиции, 2025."
          }
        ],
        "audio": {
          "url": "audio/EAO_25_41_Vald_1.0.mp3",
          "info": "Информант — женщина, 60 лет, переехала в ЕАО в 1988 г."
        }
      }
    },
    {
      "type": "Feature",
      "geometry": {
        "type": "Point",
        "coordinates": [131.095336, 47.693379]
      },
      "properties": {
        "id": "amurzet",
        "name": "Амурзет",
        "description": "<p>По официальным данным село было основано в 1929 году, однако первые переселенцы появились здесь в 1928 году. Его основатель – Л.Г. Баскин, уполномоченный КомЗЕТа. Название происходит от аббревиатуры: Амурское земельное еврейское товарищество. В 1929 году был организован еврейский сельский совет. Были построены Дом Советов, столовая, переселенческий пункт, начальная школа, 4 общественных и хозяйственных здания, жилые дома. С 1934 года Амурзет – центр Октябрьского (Сталинского) района области.</p><p>В 1928 году был организован колхоз «Ройтер Октябрь» («Красный Октябрь») – еврейский переселенческий колхоз в селе: он не раз признавался лучшим и давал рекордные урожаи. Жители сел Екатерино-Никольское и Пузино помогали переселенцам, обучая их сельскому труду. К 1934 году, году создания области здесь уже насчитывалось 27 домов, в местном колхозе появились десятки тракторов и других машин.</p><p>Серьезный удар по развитию области и по селу в частности нанесли репрессии. Как врага народа исключили из комсомола и репрессировали А. Ходоса – директора школы Амурзета.</p><p>С 1960-х гг. в Амурзете функционировал аэропорт, который планировали расширить за счет рейсов в Китай – в перспективе. В октябре 1984 года в Амурзете был создан районный краеведческий музей.</p>",
        "audio": {
          "url": "audio/EAO_25_19_Am_56.0.mp3",
          "info": ""
        }
      }
    },
    {
      "type": "Feature",
      "geometry": {
        "type": "Point",
        "coordinates": [132.797023, 48.420356]
      },
      "properties": {
        "id": "birofeld",
        "name": "Бирофельд",
        "description": "<p>Возникло село не на пустом месте. В 1910 году переселенцами из западных областей России здесь было основано село Александровка, где к 1917 году насчитывалось 163 жителя и 36 хозяйств. В начале двадцатых годов из-за засухи и сильных пожаров многие жители покинули это село. К тому времени, когда сюда стали прибывать еврейские переселенцы, здесь находилось с десяток построек, где размещали прибывших. Так начинался Бирофельд. Летом 1928 года на место сгоревшей Александровки прибыли 224 еврейских переселенца, основав Бирофельд – \"Бирское поле\" (от гидронима Бира).</p><p>Бирофельд рассматривался сначала как будущий административный центр Биро-Биджанского национального района. Однако предпочтение было отдано все-таки Тихонькой.</p><p>В июле 1928 года в Бирофельде был создан первый на Дальнем Востоке еврейский сельсовет, правления кредитного и потребительского обществ, была организована первая в Биробиджанском районе газета «Бирофельд Эмес» («Бирофельдская Правда») на идише. В Бирофельде ставились театральные постановки, в 1930 году появилась первая изба-читальня. К концу 1930 года в Бирофельде были построены 120 новых квартир, кооператив, агропункт, ветеринарный пункт, больница с аптекой, школа первой ступени (еврейская). Имелась телефонная связь с районным центром.<p>25 ноября 1940 года под селом Бирофельд, в 40 км от советско-китайской границы, был сформирован 301-й истребительный авиаполк на самолетах И-15 и И-16. Для него построили полевой аэродром, который использовался в годы Великой Отечественной войны. После войны аэродром продолжал функционировать вместе с военным городком. К началу XXI века аэродром был полностью заброшен.</p><p>В послевоенные годы в селе работал духовой оркестр и был небольшой кинотеатр. В 1958 году четыре колхоза – в Бирофельде, Алексеевке, Опытном Поле и Красивом – объединили в Бобрихинский совхоз. В Бирофельде был построен крупнейший в области животноводческий комплекс, появились благоустроенные дома. В 1979 году был открыт школьный музей, посвященный истории села, передовикам коллективизации и ветеранам ВОВ.</p><p>Сегодня Бирофельд остается одним из самых крупных сел Биробиджанского района, объединяющим пять окрестных сел – Бирофельд (административный центр), Алексеевка, Опытное Поле, Димитрово и Красивое. Центром автономии он так и не стал. К 1992 году население сократилось до 1 700 человек (против 2 500 в 1940-х гг.). А в 2020 году, по данным Всероссийской переписи населения, в Бирофельдском сельском поселении проживало 1057 человек.</p>"
      }
    },
    {
      "type": "Feature",
      "geometry": {
        "type": "Point",
        "coordinates": [133.097797, 48.489778]
      },
      "properties": {
        "id": "nayfeld",
        "name": "Найфельд",
        "description": "<p>По наиболее распространённой версии основано в 1929 г. Однако архивные документы позволяют рассматривать более поздню дату. Первое упоминание запланированного строительства переселенческого колхоза на участке Казанка-Некипелово (где уже существовали малочисленные старожильческие поселения) относится к 1933 г. В 1934 г. образованы колхозы «Казанка» и «Некипелово», утверждён план переселения в эти колхозы, а в 1935 г. последний в связи с притоком еврейских переселенческих семей получил новое название «Эмес». При этом колхоз некоторое время относился к с. Некипелово, но к 1935-1936 г. на базе усадьбы «Эмеса» было образовано отдельное село Найфельд. Специализировался колхоз на овощеводстве и животноводстве, все колхозники имели личное подсобное хозяйство.</p><p>К 1941 г. в селе Найфельд насчитывалось 14 домов, имелась школа, клуб. В 1950 г. колхоз «Эмес» в соответствии с тенденцией к переменованию еврейских поселений получил название «Правда» и объединился с близлежащими мелкими хозяйствами, но вскоре колхоз был расформирован и Найфельд стал усадьбой совхоза «Петровский».</p><p>К концу XX века в Найфельде находились дом быта, столовая, детский сад, школа, библиотека; были построены новые дома коттеджного типа. В 90-х годах построен комплекс для производства муки, масла, пастеризации молока, две хлебопекарни, налажено производство макаронных изделий и солёной рыбы. В конце 2000-х и начале 2010-х в Найфельде открыта амбулатория, музей истории ближних сёл, краеведческий клуб.</p>"
      }
    },
    {
      "type": "Feature",
      "geometry": {
        "type": "Point",
        "coordinates": [131.721596, 48.994125]
      },
      "properties": {
        "id": "birakan",
        "name": "Биракан",
        "description": "<p>Посёлок возник как еврейская артель в начале 1930‑х годов. В 1931‑1932 гг. здесь был создан еврейский колхоз «Найе Лебен» («Новая жизнь»). Переселенцы занимались сельским хозяйством, работали на лесозаготовках. В 1930‑е годы в посёлке действовала начальная школа, клуб. В годы Великой Отечественной войны многие жители ушли на фронт. После войны развивалась лесная промышленность. Ныне — посёлок в Облученском районе, население около 1 тыс. человек.</p>"
      }
    },
    {
      "type": "Feature",
      "geometry": {
        "type": "Point",
        "coordinates": [134.580008, 48.592534]
      },
      "properties": {
        "id": "sotsgorodok",
        "name": "Соцгородок",
        "description": "<p>Соцгородок – это проект, возникший в среде левой еврейской интеллигенции США в середине 1920-х гг. Проект трансформации традиционного еврейского местечка в передовую сельскохозяйственную коммуну. Чарльз Кунц, один из учредителей организации ИКОР отправился в 1928 году в Биробиджан, с целью разработки программы еврейской колонизации Приамурья. В мае 1929 году эту программу запустили в качестве эксперимента. Так, началась реализация проекта построения принципиально нового типа поселения, призванного стать своего рода «новым домом» для советского еврея (Соцгородок был основан в 1931 году).</p><p>Евреи-идеалисты, желавшие строить новую, счастливую жизнь в социалистическом государстве, приезжали в Соцгородок из других стран. Их энтузиазм подкреплялся масштабной материальной помощью от зарубежных единомышленников. Из-за границы потоком шло современное по тем временам оборудование.</p><p>К 1933 году на пустом месте вырос процветающий посёлок с двумя улицами, двухэтажными общежитиями, семилетней школой на идише, библиотекой, клубом и красным уголком. Закипела работа: заработали столярная мастерская, кузница, электростанция и шпалорезка, было налажено молочно-свиное хозяйство, снабжавшее продукцией Хабаровск, открыта пекарня, организована рыболовецкая артель.</p><p>Золотой век Соцгородка оказался недолгим. Первый удар по коммуне нанес неурожай 1933 года, спровоцировавший голод во всем регионе. Стремительное сворачивание советской властью политики коренизации и вызванная этим неопределенность спровоцировали кризис убеждений у части членов коммуны, которые стали покидать посёлок. Коммуна распалась и была реорганизована в колхоз «ИКОР».</p> <p>С началом репрессий, в 1937 году волна арестов обрушилась на оставшихся в колхозе иностранных переселенцев. Их забирали прямо с рабочих мест, обвиняя в шпионаже и контрреволюционной деятельности. Клуб и школа закрылись. Колхоз лишился лучших кадров и в сентябре 1939 года был переименован в «колхоз имени XVIII съезда», а затем и вовсе присоединен к соседнему хозяйству. Во время ВОВ большая часть мужского населения отправилась на фронт, многие не вернулись.</p><p>С началом антиеврейской кампании в СССР в 1947 году были окончательно разорваны связи с зарубежной организацией «ИКОР». Само это название стало опальным и было предано забвению. В 1960-1970-е годы поселок пережил некоторый экономический подъем, но он носил ограниченный характер ввиду утраты Соцгородком своей идеологической основы, некогда делавшей его привлекательным для переселенцев. Соцгородок превратился в обычный рабочий посёлок, специализирующийся на лесной промышленности. К концу советской эпохи промышленность поселка пришла в упадок, что вызвало значительный отток жителей, покидавших район в поисках работы и лучшей жизни.</p><p>Сегодня Соцгородок небольшое село в Смиловичском районе, население которого на момент 2025 года составляло менее 150 человек.</p>"
      }
    },
    {
      "type": "Feature",
      "geometry": {
        "type": "Point",
        "coordinates": [132.697894, 48.407110]
      },
      "properties": {
        "id": "opytnoe_pole",
        "name": "Опытное поле",
        "description": "<p>Территория, на которой расположено Бирское опытное поле, начала осваиваться в начале 20 века. Крестьяне, переселявшиеся на новые территории, стали образовывать села (Русская поляна, Алексеевка, Назарово и др.). Уже в 1915 году население Бирского Опытного поля состояло из 432 семей, 1087 душ. К сожалению, сложные погодные условия, пожар Первой мировой войны привели к временной приостановке дальнейшего развития территории. Многие переселенцы из числа водворенных снимаются со своих мет и покидают ряд населенных пунктов, некоторые из которых прекращают своё существование.</p><p>Активное заселение этих территорий начинается после прихода советской власти. С середины 1920-х годов всё активнее стали обсуждаться планы по землеустройству трудящихся евреев и в этот период территория начинает заселяться новыми жителями. После приезда на станцию Тихонькая (позже переименованную в Биробиджан) переселенцы отдыхали несколько дней с дороги, получали в конторе Озета лошадей, упряжь и инвентарь, после чего отправлялись на Бирское опытное поле. Оно находилось в 60 километрах от Тихонькой. Здесь находились земельные участки, которые были намечены к заселению в первую очередь. Большинство переселенцев 1928 года было расселено на 7-8 участках этого массива, впоследствии названного Бирефельдским, в радиусе до 1-15 км от Опытного поля. В 1930 году Бирское опытное поле было расширено и превратилось скорее в зональную опытную станцию.</p>"
      }
    },
    {
      "type": "Feature",
      "geometry": {
        "type": "Point",
        "coordinates": [131.995510, 49.015129]
      },
      "properties": {
        "id": "londoko",
        "name": "Лондоко",
        "description": "<p>Поселок Лондоко был основан в 1909 году как один из железнодорожных населенных пунктов, появившихся при строительстве восточного участка Амурской железной дороги. Сама железнодорожная станция Лондоко была введена в эксплуатацию в 1915 году. Название «Лондоко» известно по крайней мере с 1913 года, когда оно упоминается в официальных картах Амурской железной дороги. По одной из версий, оно происходит от тунгусского «лэнд-тэке», что означает «самое высокое место» или «сопка», согласно другой версии, название поселка берет начало от нанайского «лонда-лонда», что означает место, в котором вялят рыбу.</p><p>В 1923-1926 гг. был создан Лондоковский сельсовет. По данным на 1924 год, поселок входил в состав Михайло-Семеновской волости Амурской губернии и насчитывал 192 жителя и 58 дворов.</p> <p>В 1930-е годы началось активное промышленное освоение, были обнаружены разнообразные полезные ископаемые. В 1930 году строится Лондоковский известковый завод. В 1938 году он введен в строй и вокруг образован рабочий поселок. Завод производил известь и строительные материалы, обеспечивая сырьем растущий строительный сектор Дальнего Востока. Развитие поселка сопровождалось развитием социальной инфраструктуры, возводились жилые дома, школа, клуб, радиоузел и медицинские учреждения.</p> <p>В годы Великой Отечественной войны около 200 жителей Лондоко ушли на фронт. После войны, с 1945 по 1948 год, на заводе трудилось более 20 тысяч японских военнопленных, труд политических заключенных и военнопленных использовали на различных промышленных объектах, включая и Лондоковский известковый завод. К 1953 году в поселке насчитывалось уже 110 хозяйств.</p> <p>В 1990-е годы, несмотря на общий спад производства в стране, Лондоковский завод продолжал работу. В условиях кризиса предприятие перепрофилировалось на выпуск щебня для железных дорог и строительства. В 2007 году был освоен выпуск крупнофракционного облицовочного камня. Тем не менее, 19 февраля 2010 года завод был официально ликвидирован. Это событие во многом стало переломным в истории поселка, спровоцировав волну оттока населения и упадок инфраструктуры.</p>"
      }
    },
    {
      "type": "Feature",
      "geometry": {
        "type": "Point",
        "coordinates": [131.938369, 47.973965]
      },
      "properties": {
        "id": "bidzhan",
        "name": "Биджан",
        "description": "<p>Биджан - одно из крупнейших и старейших сел ЕАО, основанное в 1873 г. переселенцами из соседних деревень Вецлево и Дежнево. Слово “Биджан” в переводе с тунгусского “бира джикан” означает “стойбище людей в далеком месте”. В первые годы существования поселения жители занимались охотой, рыбной ловлей, землепашеством.</p><p>Постепенно население Биджана росло, и уже к 1910 г. в нем проживало около 600 человек.</p><p>До 1926 года село Биджан входило в состав Екатерино-Никольской волости. В марте 1929 г. в селе был образован колхоз, названный по имени одного из организаторов борьбы за власть советов в Приморье Ф. К. Мухина.</p><p>С началом Великой Отечественной войны из Биджана ушли на фронт более ста человек. Домой не вернулись около 40 биджанцев.<br>После войны, в 1948 г., в Биджане создается машинно-тракторная станция, ликвидированная в январе 1960 г. Вместо нее организован совхоз «Добринский», в который вошли колхозы сел Биджан, Венцелево, Преображеновка, Новотроицкое. Он был одним из крупных сельскохозяйственных предприятий ЕАО до 1990 г., являясь основой экономики Биджана.<br>За эти годы в селе построена больница (1960 г.), пекарня (1962 г.), открыт дом культуры (1965 г.) и кинотеатр, детский сад (1968 г.) и школа (1970 г.).</p><p>Сейчас Биджан по-прежнему остается одним из крупнейших сел Ленинского района, являясь центром биджанского сельского поселения. Здесь действуют сельскохозяйственные, торговые и строительные предприятия.</p>"
      }
    },
    {
      "type": "Feature",
      "geometry": {
        "type": "Point",
        "coordinates": [131.883688, 49.010945]
      },
      "properties": {
        "id": "teploozersk",
        "name": "Теплоозерск",
        "description": "<p>Возник как железнодорожный разъезд в 1915 году, станция открыта в 1916 году. Название посёлок получил от находящегося в ≈5,4 км к юго-востоку озера Тёплого, температура воды в котором даже летом не превышает 10-12 градусов, однако подземные источники, питающие водоем, не дают ему промерзнуть зимой.</p><p>В 1928 году основан Тепловский рыбоводный завод (один из первых на Дальнем Востоке). В 1939 году начато строительство цементного завода, который был запущен в 1949 году. Завод стал градообразующим, посёлок активно развивался в 1960‑1980‑е годы: построены Дом культуры с уникальной фреской «Алые паруса» (1976 г.), школа №18, детский сад, кинотеатр «Строитель». В 1990‑е годы начался спад производства, что спровоцировало отток населения.</p><p>Ныне — это посёлок городского типа, моногород с рисками социально-экономического положения, действует цементный завод.</p>"
      }
    },
    {
      "type": "Feature",
      "geometry": {
        "type": "Point",
        "coordinates": [134.603472, 48.550600]
      },
      "properties": {
        "id": "kamyshovka",
        "name": "Камышовка",
        "description": "<p>История села Камышовка восходит ещё к дореволюционному времени. Дата образования села 1915 год. Есть версия, что до революции здесь проходил почтовый тракт, находился почтовый смотритель, был пункт смены почтовых лошадей. В 1922–1924 годах царские конюшни были ликвидированы, а лошади переданы в товарищество по совместной обработке земли (ТОЗ). В 1927 году эти земли были переданы колхозу «Дальневосточный колхозник» (ныне с. Даниловка).</p><p>В 1929 году коммунары ИКОР по предложению ОЗЕТа переселились на Дежневское опытное поле, как раз в район Камышовки. К 1933 году здесь было процветающее хозяйство: строились двухэтажные дома, школа, клуб, электростанция. На состоянии коммуны сказался голод 1933 года, и последующее разочарование от идеи Биробиджанского проекта. В 1934 году товарищество распалось, коммуна перешла на устав сельхозартели. Многие иностранные специалисты вернулись на родину, некоторые уехали в другие переселенческие посёлки.</p><p>В 1935–1936 началось, однако, возрождение посёлка: прибывали новые переселенцы из Украины, была запущена мебельная фабрика с современными американскими станками, школа-семилетка, создана мастерская лозоплетения, радиостанция. В середине 1930-х годов коммуна, ставшая колхозом, была признана одним из лучших коллективных хозяйств Дальневосточного края.</p><p>В 1937-1938 годах большая часть зарубежных коммунаров-евреев была репрессирована, сослана в Сибирь и тюрьмы. Особо трудно приходилось колхозникам во время Великой Отечественной войны. Всех мужчин забрали на фронт. В колхозе работали женщины, дети и старики.</p><p>После войны в поселок снова начали прибывать переселенцы: целинных земель было еще очень много, поэтому работы хватало всем. Однако в 1947 году в СССР началась антисемитская кампания – связь и сотрудничество с американской организацией «ИКОР» прекратилась.<br>17 августа 1958 года проходило собрание, на котором было принято решение об образовании «Волочаевского совхоза». Он был создан на базе трех колхозов: «Сталинский призыв» (с. Ключевое), «Дальневосточный колхозник» (с. Даниловка) и «XVIII партсъезд» (с. Камышовка).</p><p>В 1962 село было переименовано в Камышовку. С 1963 года в селе началось строительство многоквартирных домов со всеми коммунальными удобствами – теперь таких домов в селе много. В 1967 году в эксплуатацию были сданы двухквартирные деревянные дома. В 1980 году построена средняя школа, а в 1991 году в селе появился новый детский сад. На 2010 год в селе проживало 1123 жителя, в основном пенсионеры.</p>"
      }
    },
    {
      "type": "Feature",
      "geometry": {
        "type": "Point",
        "coordinates": [133.808095, 48.595615]
      },
      "properties": {
        "id": "smidovich",
        "name": "Смидович",
        "description": "<p>Изначальное название поселка - Ин (железнодорожная станция Ин на Транссибирской магистрали) и происходит от гидронима (якутское «ин» — «овраг, ров», может быть, «речная долина»). После образования Еврейской автономной области в 1934 году переименован в честь советского партийного деятеля П. Г. Смидовича, который был председателем КОМЗЕТа.</p><p>Станция Ин в 1910 г. появилась в связи с переселением крестьян из западных регионов и по причине строительства Амурского участка Транссиба. На Ине находилось депо, основанное в 1912 г. по ремонту и экипировке паровозов. Вместе с депо появились первые казармы для деповских рабочих и машинистов.</p><p>В 1930 г. здесь евреями была основана артель по пошиву обуви, одежды и изготовлению продуктов питания «Ройтер Октябр». В 1931 г. организацией Агро-Джойнт в поселке была основана МТС. В 1933 г. в Смидовиче проживало 143 еврея, а к 1939 году уже 489 человек.</p><p>В 1980-е годы в поселке находились: предприятия железнодорожного транспорта, авторемонтный завод. Был построен Дом Культуры.</p><p>В наши дни в Смидовиче кипит культурная и общественная деятельность. В ноябре 2008 г. посёлок посетили активисты биробиджанской еврейской общины «Фрейд», состоящий из более чем пятидесяти артистов трех общинных и танцевальных ансамблей, группы еврейского музыкально-драматического театра «Когелет». В 2009 г. было завершено строительство нового здания вокзала. В Смидовиче функционирует отдел еврейской благотворительной организации «Хесэд», которую развивают сотрудники общины «Фрейд». В поселке действует проект по возрождению краеведческого музея, посвященного истории поселка и коммуны ИКОР.</p>"
      }
    },
    {
      "type": "Feature",
      "geometry": {
        "type": "Point",
        "coordinates": [131.639481, 49.204973]
      },
      "properties": {
        "id": "kuldur",
        "name": "Кульдур",
        "description": "<p>История посёлка Кульдур начинается с местных горячих источников, ставших первым санаторием Дальнего Востока. Для местного тунгусского населения они являлись местом поклонения и жертвоприношений.</p><p>Кульдур – в переводе с тунгусского «горячий». Главным лечебным фактором курорта является термальная слабоминерализованная азотно-кремниевая минеральная вода с большим количеством микроэлементов, температура которой при выходе из земли составляет 72 градуса по Цельсию. Вода является эталонной в своей группе термальных источников и имеет уникальные свойства. Слухи о кульдурских водах распространялись быстро, люди отправлялись на лечение к источникам даже несмотря на то, что дорог до них не было. Там они строили временные жилища, рыли ямы для купания и лечились.</p><p>Особенно популярность источника возросла во время строительства Амурской железной дороги в 1910-ых годах. Рабочие, изнуренные тяжелым физическим трудом на постройке дороги, на заготовке леса, получившие различные заболевания, устремлялись к Кульдуру. Это способствовало как коммерциализации источников, а с другой – их развитию.</p><p>Курорт развивался стремительными темпами. За период 1920-х годов были построены лечебные корпуса курорта, помещение для лечения паровыми ваннами, так называемая «паровушка», дооборудовано ванное отделение, построены дома для служащих, электростанция, метеорологическая станция, организованы подсобные предприятия – обоз, пекарня, молочная ферма, база для снабжения, свиноводческое хозяйство, огородничество. Улучшена дорога от станции Биракан к Кульдуру. С 1926 года в Кульдуре каждый сезон работают врачи-специалисты.</p><p>В годы Великой отечественной войны кульдурские лечебницы стали крупными военными госпиталями. Здесь проходили реабилитацию и долечивались солдаты и офицеры. В обычных условиях этот процесс требовал несколько месяцев, в то время как Кульдур позволял завершить реабилитацию в срок 3-4 недель.</p> <p>В 1960-е годы были построены пять спальных корпусов, поликлиника, водолечебница на сорок ванн, детский сад, школа, столовая, электростанция, комбинат бытового обслуживания, заложен ДК. Вместе с курортом всячески развивался и сам посёлок, появлялись каменные здания школы и детского сада, развивалась вся необходимая инфраструктура, возводилось панельное жилье.</p><p>Сегодня в Кульдур приезжают отдохнуть и поправить свое здоровье тысячи дальневосточников. Здесь расположены четыре конкурентоспособных санатория – «Кульдур», «Санус», санаторий-профилакторий «Горняк», а также санаторий «Кульдурский» (филиал санаторно-курортного комплекса Министерства обороны РФ).</p>"
      }
    }
  ]
}